{
    "links": {
        "self": "http://www.neowsapp.com/rest/v1/neo/3164413?api_key=iIulBulltgU6a56xZRHN4H3l9WmuAYTsLGpBGhQ2"
    },
    "id": "3164413",
    "neo_reference_id": "3164413",
    "name": "(2003 UP25)",
    "designation": "2003 UP25",
    "nasa_jpl_url": "http://ssd.jpl.nasa.gov/sbdb.cgi?sstr=3164413",
    "absolute_magnitude_h": 23.3,
    "estimated_diameter": {
        "kilometers": {
            "estimated_diameter_min": 0.058150704,
            "estimated_diameter_max": 0.130028927
        },
        "meters": {
            "estimated_diameter_min": 58.1507039646,
            "estimated_diameter_max": 130.0289270043
        },
        "miles": {
            "estimated_diameter_min": 0.0361331611,
            "estimated_diameter_max": 0.0807962044
        },
        "feet": {
            "estimated_diameter_min": 190.7831555951,
            "estimated_diameter_max": 426.6041048727
        }
    },
    "is_potentially_hazardous_asteroid": false,
    "close_approach_data": [
        {
            "close_approach_date": "1993-10-24",
            "close_approach_date_full": "1993-Oct-24 07:09",
            "epoch_date_close_approach": 751446540000,
            "relative_velocity": {
                "kilometers_per_second": "12.8114644002",
                "kilometers_per_hour": "46121.2718408276",
                "miles_per_hour": "28657.9647168743"
            },
            "miss_distance": {
                "astronomical": "0.2318495351",
                "lunar": "90.1894691539",
                "kilometers": "34684196.611450237",
                "miles": "21551760.4059457906"
            },
            "orbiting_body": "Earth"
        },
        {
            "close_approach_date": "2003-10-22",
            "close_approach_date_full": "2003-Oct-22 00:26",
            "epoch_date_close_approach": 1066782360000,
            "relative_velocity": {
                "kilometers_per_second": "10.7819402202",
                "kilometers_per_hour": "38814.9847925728",
                "miles_per_hour": "24118.1220784739"
            },
            "miss_distance": {
                "astronomical": "0.0830251128",
                "lunar": "32.2967688792",
                "kilometers": "12420380.031389736",
                "miles": "7717666.2785649168"
            },
            "orbiting_body": "Earth"
        },
        {
            "close_approach_date": "2013-10-19",
            "close_approach_date_full": "2013-Oct-19 18:25",
            "epoch_date_close_approach": 1382207100000,
            "relative_velocity": {
                "kilometers_per_second": "10.777802623",
                "kilometers_per_hour": "38800.0894429512",
                "miles_per_hour": "24108.8666874826"
            },
            "miss_distance": {
                "astronomical": "0.1669382116",
                "lunar": "64.9389643124",
                "kilometers": "24973600.876969292",
                "miles": "15517876.0114765496"
            },
            "orbiting_body": "Earth"
        },
        {
            "close_approach_date": "2198-05-01",
            "close_approach_date_full": "2198-May-01 17:50",
            "epoch_date_close_approach": 7205478600000,
            "relative_velocity": {
                "kilometers_per_second": "11.180480055",
                "kilometers_per_hour": "40249.7281980029",
                "miles_per_hour": "25009.6158350313"
            },
            "miss_distance": {
                "astronomical": "0.4395060571",
                "lunar": "170.9678562119",
                "kilometers": "65749169.994258377",
                "miles": "40854639.7796125226"
            },
            "orbiting_body": "Earth"
        }
    ],
    "orbital_data": {
        "orbit_id": "13",
        "orbit_determination_date": "2017-04-06 09:13:35",
        "first_observation_date": "2003-10-24",
        "last_observation_date": "2003-11-05",
        "data_arc_in_days": 12,
        "observations_used": 57,
        "orbit_uncertainty": "8",
        "minimum_orbit_intersection": ".0784694",
        "jupiter_tisserand_invariant": "5.026",
        "epoch_osculation": "2452938.5",
        "eccentricity": ".1558146266843837",
        "semi_major_axis": "1.266012843670373",
        "inclination": "19.93406786440739",
        "ascending_node_longitude": "29.57925313291946",
        "orbital_period": "520.3021185977958",
        "perihelion_distance": "1.068749525056239",
        "perihelion_argument": "343.996000144819",
        "aphelion_distance": "1.463276162284508",
        "perihelion_time": "2452920.918131671840",
        "mean_anomaly": "12.16499485951625",
        "mean_motion": ".6919056969635125",
        "equinox": "J2000",
        "orbit_class": {
            "orbit_class_type": "AMO",
            "orbit_class_description": "Near-Earth asteroid orbits similar to that of 1221 Amor",
            "orbit_class_range": "1.017 AU < q (perihelion) < 1.3 AU"
        }
    },
    "is_sentry_object": false
}